{
  "type": "FeatureCollection",
  "features": [
    {
      "type": "Feature",
      "properties": {
        "norad_id": 36744,
        "name": "COMS 1",
        "group": "weather",
        "lat": -3.68382237436553,
        "lon": -43.61649703644811,
        "alt_km": 35784.39350693532,
        "timestamp": "2025-12-04T07:39:35.816948+00:00",
        "meta_object_name": "COMS 1",
        "meta_object_id": "2010-032A",
        "meta_epoch": "2025-12-03T17:35:32.728416",
        "meta_mean_motion": 1.00269913,
        "meta_eccentricity": 0.0001111,
        "meta_inclination": 4.318,
        "meta_ra_of_asc_node": 78.097,
        "meta_arg_of_pericenter": 184.7227,
        "meta_mean_anomaly": 202.0533,
        "meta_ephemeris_type": 0,
        "meta_classification_type": "U",
        "meta_norad_cat_id": 36744,
        "meta_element_set_no": 999,
        "meta_rev_at_epoch": 4913,
        "meta_bstar": 0,
        "meta_mean_motion_dot": -3.29e-06,
        "meta_mean_motion_ddot": 0,
        "tle_line1": "1 36744U 10032A   25337.73301769 -.00000329  00000+0  00000+0 0  9999",
        "tle_line2": "2 36744   4.3180  78.0970 0001111 184.7227 202.0533  1.00269913 49131"
      },
      "geometry": {
        "type": "Point",
        "coordinates": [
          -43.61649703644811,
          -3.68382237436553
        ]
      }
    },
    {
      "type": "Feature",
      "properties": {
        "norad_id": 37214,
        "name": "FENGYUN 3B",
        "group": "weather",
        "lat": 10.349114694417933,
        "lon": 16.58026181106978,
        "alt_km": 828.5903286606826,
        "timestamp": "2025-12-04T07:39:35.816959+00:00",
        "meta_object_name": "FENGYUN 3B",
        "meta_object_id": "2010-059A",
        "meta_epoch": "2025-12-03T23:40:28.257024",
        "meta_mean_motion": 14.14786033,
        "meta_eccentricity": 0.00224241,
        "meta_inclination": 98.9921,
        "meta_ra_of_asc_node": 17.9022,
        "meta_arg_of_pericenter": 22.432,
        "meta_mean_anomaly": 94.4995,
        "meta_ephemeris_type": 0,
        "meta_classification_type": "U",
        "meta_norad_cat_id": 37214,
        "meta_element_set_no": 999,
        "meta_rev_at_epoch": 77982,
        "meta_bstar": 0.00013251455,
        "meta_mean_motion_dot": 2.11e-06,
        "meta_mean_motion_ddot": 0,
        "tle_line1": "1 37214U 10059A   25337.98643816  .00000211  00000+0  13251-3 0  9995",
        "tle_line2": "2 37214  98.9921  17.9022 0022424  22.4320  94.4995 14.14786033779825"
      },
      "geometry": {
        "type": "Point",
        "coordinates": [
          16.58026181106978,
          10.349114694417933
        ]
      }
    },
    {
      "type": "Feature",
      "properties": {
        "norad_id": 37849,
        "name": "SUOMI NPP",
        "group": "weather",
        "lat": 66.8576640369675,
        "lon": -105.45086516036868,
        "alt_km": 819.9091679857574,
        "timestamp": "2025-12-04T07:39:35.816969+00:00",
        "meta_object_name": "SUOMI NPP",
        "meta_object_id": "2011-061A",
        "meta_epoch": "2025-12-03T22:52:48.067968",
        "meta_mean_motion": 14.19510314,
        "meta_eccentricity": 0.00019199,
        "meta_inclination": 98.776,
        "meta_ra_of_asc_node": 275.3746,
        "meta_arg_of_pericenter": 136.0813,
        "meta_mean_anomaly": 224.0516,
        "meta_ephemeris_type": 0,
        "meta_classification_type": "U",
        "meta_norad_cat_id": 37849,
        "meta_element_set_no": 999,
        "meta_rev_at_epoch": 73074,
        "meta_bstar": 0.00011408126,
        "meta_mean_motion_dot": 1.96e-06,
        "meta_mean_motion_ddot": 0,
        "tle_line1": "1 37849U 11061A   25337.95333412  .00000196  00000+0  11408-3 0  9992",
        "tle_line2": "2 37849  98.7760 275.3746 0001919 136.0813 224.0516 14.19510314730746"
      },
      "geometry": {
        "type": "Point",
        "coordinates": [
          -105.45086516036868,
          66.8576640369675
        ]
      }
    },
    {
      "type": "Feature",
      "properties": {
        "norad_id": 38552,
        "name": "METEOSAT-10 (MSG-3)",
        "group": "weather",
        "lat": 3.3588787707275474,
        "lon": -171.5484637418455,
        "alt_km": 35785.60555162891,
        "timestamp": "2025-12-04T07:39:35.816980+00:00",
        "meta_object_name": "METEOSAT-10 (MSG-3)",
        "meta_object_id": "2012-035B",
        "meta_epoch": "2025-12-03T01:46:14.361312",
        "meta_mean_motion": 1.00272334,
        "meta_eccentricity": 7.5e-05,
        "meta_inclination": 4.2044,
        "meta_ra_of_asc_node": 61.7366,
        "meta_arg_of_pericenter": 219.9554,
        "meta_mean_anomaly": 177.1386,
        "meta_ephemeris_type": 0,
        "meta_classification_type": "U",
        "meta_norad_cat_id": 38552,
        "meta_element_set_no": 999,
        "meta_rev_at_epoch": 4889,
        "meta_bstar": 0,
        "meta_mean_motion_dot": 1.1e-07,
        "meta_mean_motion_ddot": 0,
        "tle_line1": "1 38552U 12035B   25337.07377733  .00000011  00000+0  00000+0 0  9991",
        "tle_line2": "2 38552   4.2044  61.7366 0000750 219.9554 177.1386  1.00272334 48899"
      },
      "geometry": {
        "type": "Point",
        "coordinates": [
          -171.5484637418455,
          3.3588787707275474
        ]
      }
    },
    {
      "type": "Feature",
      "properties": {
        "norad_id": 38771,
        "name": "METOP-B",
        "group": "weather",
        "lat": -43.02604645444498,
        "lon": -159.77820887396305,
        "alt_km": 826.3200446401797,
        "timestamp": "2025-12-04T07:39:35.816990+00:00",
        "meta_object_name": "METOP-B",
        "meta_object_id": "2012-049A",
        "meta_epoch": "2025-12-03T23:51:13.778208",
        "meta_mean_motion": 14.21403487,
        "meta_eccentricity": 0.00025204,
        "meta_inclination": 98.6812,
        "meta_ra_of_asc_node": 28.1005,
        "meta_arg_of_pericenter": 163.9028,
        "meta_mean_anomaly": 196.223,
        "meta_ephemeris_type": 0,
        "meta_classification_type": "U",
        "meta_norad_cat_id": 38771,
        "meta_element_set_no": 999,
        "meta_rev_at_epoch": 68553,
        "meta_bstar": 0.00016338265,
        "meta_mean_motion_dot": 3.13e-06,
        "meta_mean_motion_ddot": 0,
        "tle_line1": "1 38771U 12049A   25337.99390947  .00000313  00000+0  16338-3 0  9992",
        "tle_line2": "2 38771  98.6812  28.1005 0002520 163.9028 196.2230 14.21403487685530"
      },
      "geometry": {
        "type": "Point",
        "coordinates": [
          -159.77820887396305,
          -43.02604645444498
        ]
      }
    },
    {
      "type": "Feature",
      "properties": {
        "norad_id": 39216,
        "name": "INSAT-3D",
        "group": "weather",
        "lat": -1.1343415490046556,
        "lon": -42.18936209386753,
        "alt_km": 35784.18913410154,
        "timestamp": "2025-12-04T07:39:35.817000+00:00",
        "meta_object_name": "INSAT-3D",
        "meta_object_id": "2013-038B",
        "meta_epoch": "2025-12-03T19:09:59.504832",
        "meta_mean_motion": 1.00273601,
        "meta_eccentricity": 0.00017622,
        "meta_inclination": 1.4199,
        "meta_ra_of_asc_node": 85.093,
        "meta_arg_of_pericenter": 155.0281,
        "meta_mean_anomaly": 249.7797,
        "meta_ephemeris_type": 0,
        "meta_classification_type": "U",
        "meta_norad_cat_id": 39216,
        "meta_element_set_no": 999,
        "meta_rev_at_epoch": 4512,
        "meta_bstar": 0,
        "meta_mean_motion_dot": -3.22e-06,
        "meta_mean_motion_ddot": 0,
        "tle_line1": "1 39216U 13038B   25337.79860538 -.00000322  00000+0  00000+0 0  9998",
        "tle_line2": "2 39216   1.4199  85.0930 0001762 155.0281 249.7797  1.00273601 45127"
      },
      "geometry": {
        "type": "Point",
        "coordinates": [
          -42.18936209386753,
          -1.1343415490046556
        ]
      }
    },
    {
      "type": "Feature",
      "properties": {
        "norad_id": 39260,
        "name": "FENGYUN 3C",
        "group": "weather",
        "lat": -73.92200922778888,
        "lon": -12.436152315516582,
        "alt_km": 842.5999935817399,
        "timestamp": "2025-12-04T07:39:35.817011+00:00",
        "meta_object_name": "FENGYUN 3C",
        "meta_object_id": "2013-052A",
        "meta_epoch": "2025-12-03T23:32:19.571712",
        "meta_mean_motion": 14.15692226,
        "meta_eccentricity": 0.00138543,
        "meta_inclination": 98.4754,
        "meta_ra_of_asc_node": 316.0882,
        "meta_arg_of_pericenter": 222.3685,
        "meta_mean_anomaly": 137.6421,
        "meta_ephemeris_type": 0,
        "meta_classification_type": "U",
        "meta_norad_cat_id": 39260,
        "meta_element_set_no": 999,
        "meta_rev_at_epoch": 63094,
        "meta_bstar": 0.00014966419,
        "meta_mean_motion_dot": 2.52e-06,
        "meta_mean_motion_ddot": 0,
        "tle_line1": "1 39260U 13052A   25337.98078208  .00000252  00000+0  14966-3 0  9990",
        "tle_line2": "2 39260  98.4754 316.0882 0013854 222.3685 137.6421 14.15692226630940"
      },
      "geometry": {
        "type": "Point",
        "coordinates": [
          -12.436152315516582,
          -73.92200922778888
        ]
      }
    }
  ]
}